ORBCOMM FM37 [-]        
1 33064U 08031E   24113.40637034  .00004341  00000+0  64863-3 0  9997
2 33064  48.4394 178.7539 0005948   5.8703  84.8283 14.76286790851804
ORBCOMM FM40 [-]        
1 33065U 08031F   24113.56559396  .00004592  00000+0  66423-3 0  9991
2 33065  48.4414 167.5457 0007091  16.5950 136.3532 14.77579264851865
VESSELSAT 1 [-]         
1 37840U 11058C   24114.17704940  .00000622  00000+0  19514-3 0  9993
2 37840  19.9616 114.9532 0013539 246.8379 113.0598 14.11142018647132
ORBCOMM FM109 [+]       
1 40086U 14040A   24113.32931003  .00003605  00000+0  83923-3 0  9990
2 40086  47.0024 201.5343 0002198 212.8720 147.2029 14.56521877519676
ORBCOMM FM107 [+]       
1 40087U 14040B   24113.63804243  .00003528  00000+0  82206-3 0  9997
2 40087  47.0038 201.0442 0001383 197.4704 162.6133 14.56530388519799
ORBCOMM FM106 [-]       
1 40088U 14040C   24113.96099951  .00003975  00000+0  73400-3 0  9998
2 40088  47.0607  53.9506 0018516 277.1931  82.6854 14.66921400521931
ORBCOMM FM111 [-]       
1 40089U 14040D   24113.55813255  .00004045  00000+0  53065-3 0  9999
2 40089  47.0039 319.0095 0033105 343.3977  16.5832 14.81586671527759
ORBCOMM FM104 [-]       
1 40090U 14040E   24113.72819660  .00002525  00000+0  61749-3 0  9995
2 40090  47.0040 229.3329 0016105  85.4581 274.8142 14.55063155519350
